STARLINK-32961          
1 63122U 25039U   26068.21704064  .00023002  00000+0  84262-3 0  9990
2 63122  43.0039  15.5279 0001489 260.3089  99.7595 15.27586627 57997
COSMOS 2588             
1 64095U 25109A   26068.81179522  .00009169  00000+0  32611-3 0  9998
2 64095  72.9704  73.5401 0005019 308.6780  51.3966 15.29122656 44425
